{"fetched_at":"2026-03-30T09:12:31Z","count":15922,"tles":[{"name":"STARLINK-5342","line1":"1 56516U 23065P   26087.83335648  .00007992  00000+0  30731-3 0  9995","line2":"2 56516  43.0010 103.8301 0001433 267.2533  97.3807 15.26738602  5760","category":"Starlink"}]}