{
  "norad_id": 56516,
  "name": "STARLINK-5342",
  "history": [
    {
      "epoch": "2026-03-28T20:00:01.999872Z",
      "apogee_km": 486.5535450643547,
      "perigee_km": 484.58585762721304,
      "latitude_deg": 3.1305175886944134,
      "longitude_deg": -19.082731593144334,
      "height_km": 485.1198447153622,
      "semi_major_axis_km": 6863.706701345784,
      "eccentricity": 0.00014334,
      "inclination_deg": 43.001,
      "raan_deg": 103.8301,
      "arg_perigee_deg": 267.2533,
      "mean_anomaly_deg": 97.3807,
      "mean_motion_rev_day": 15.26738602
    }
  ]
}